#dP2018  9 14  0  0  0.00000000      96 __u+U IGS08 FIT  IAC
## 2018 432000.00000000   900.00000000 58375 0.0000000000000
+   90   C01C02C03C04C05C06C07C08C09C10C11C12C13C14E01E02E03
+        E04E05E07E08E09E11E12E14E18E19E21E24E25E26E27E30G01
+        G02G03G05G06G07G08G09G10G11G12G13G14G15G16G17G18G19
+        G20G21G22G23G24G25G26G27G28G29G30G31G32J01J02J03R01
+        R02R03R04R05R07R08R09R10R11R13R14R15R16R17R18R19R20
+        R21R22R23R24R26  0  0  0  0  0  0  0  0  0  0  0  0
++        13 12 13 12 12  9  8  8  8  8  7  7  8  7  7  7  7
++         7  7  7  7  7  7  7  7  7  7  8  7  7  7  7  7  3
++         3  3  3  3  3  3  3  3  3  3  3  3  3  3  3  3  0
++         3  3  3  3  3  3  3  3  3  3  3  3  3 10 11 11  6
++         5  5  7  5  5  5  5  5  5  5  5  7  5  5  5  5  5
++         5  5  5  5  8  0  0  0  0  0  0  0  0  0  0  0  0
%c M  cc GPS ccc cccc cccc cccc cccc ccccc ccccc ccccc ccccc
%c cc cc ccc ccc cccc cccc cccc cccc ccccc ccccc ccccc ccccc
%f  1.2500000  1.025000000  0.00000000000  0.000000000000000
%f  0.0000000  0.000000000  0.00000000000  0.000000000000000
%i    0    0    0    0      0      0      0      0         0
%i    0    0    0    0      0      0      0      0         0
/* INFORMATION & ANALYSIS CENTER (IAC)            FINAL DATA
/* S/V CLOCKS ARE ALIGNED TO GPS & GLONASS TIME RESPECTIVELY
/* USING THE BROADCAST EPHEMERIS                            
/* PCV:IGS14_2000 OL/AL:FES2004  NONE     YN ORB:CoN CLK:CoN
*  2018 09 14  7 45  0.00000000
PC01 -32338.580462  27038.433973   -932.636418    -53.773993
PC02   4355.300721  41922.733243    878.382588     46.457946
PC03 -14776.862230  39502.877927   -265.918270    153.304517
PC04 -39602.403988  14428.352162   -368.645660    181.808372
PC05  21904.888611  36022.526885   1137.159797   -448.750875
PC06  -9209.191343  35485.598746  21396.626362    295.698698
PC07 -14730.284618  21899.880076 -32809.256377    -20.853813
PC08 -25221.978936  31581.886700  11560.879866    525.038552
PC09     76.411953  41615.287524   7956.900749    112.670767
PC10     33.511115  26188.581135 -32852.158662    -71.644563
PC11  16009.667451    237.599420  22918.217515   -679.694408
PC12   6370.457338  19696.240496  18718.600904    608.113559
PC13 -12397.712458  32523.648511  23626.128354   -276.834528
PC14  22011.556616  10777.287162 -13334.228580    393.697964
PE01  -1512.568157  16176.937720 -24735.010969   -434.483670
PE02   1453.302947 -16192.055486  24742.336294     27.381687
PE03  -1636.096903 -27482.935602 -10888.573023    -76.927567
PE04  14473.757145  24723.642164  -7436.450588   -116.997365
PE05  12241.402668 -14140.213589 -22940.104287    194.161521
PE07 -18914.062695  -7431.387071  21535.065749    -38.062479
PE08 -14682.355282 -24592.706009   7505.358580   6503.139685
PE09  18848.880245   7307.628622 -21608.118338   6677.151866
PE11  20978.747053  -3767.011754  20525.875951   4978.597549
PE12   8228.383299  15277.348101  23979.848252   5049.777238
PE14   9433.044584  18189.166145  13931.226967   6519.856111
PE18 -18021.221932 -11677.198281 -23547.297244   5907.861673
PE19    343.308137  26801.818634  12565.576740    -12.262767
PE21 -22159.841620   8020.346806 -17914.838801   -494.577158
PE24  29236.966959   4461.986183   1299.199517   6494.039042
PE25  22150.247687  -8027.029406  17922.252186   2042.675959
PE26 -21238.480149  19930.800606  -5247.170177   5479.390459
PE27 -29213.975515  -4766.128372   -560.406611    631.467193
PE30 -19654.251115 -14669.258247  16574.214503   5514.462313
PG01   4086.075969 -17230.049628 -19864.928571    -87.940706
PG02 -20537.209603  16076.144401   4887.682370     -1.241867
PG03  -6919.114793 -18937.353076 -17357.810615    135.996870
PG05 -13481.215032   9252.427684  20851.956262     -1.997944
PG06 -24096.559774   4569.094835 -10193.106886    363.776511
PG07 -12386.320260 -10617.751945  21272.596583    124.426685
PG08   6200.580390 -24593.446988   7651.974011   -115.081419
PG09  -7845.422854 -22208.139983  12232.880235    506.560745
PG10  23829.541810   9982.631064  -6497.298657    182.009189
PG11   5262.832516 -22992.019092 -12958.505206   -718.071665
PG12   1038.178807  17477.651338 -20219.669503    307.049913
PG13 -12468.600342  19406.902012  13043.161033    -89.197266
PG14  15301.284496  -4778.319274 -20842.919145    -97.303351
PG15  -1530.854700  26067.117907   3264.790992   -345.936488
PG16  15255.243296  -5694.734590  20915.735002      9.082468
PG17 -13724.204915  -6295.731089 -21473.493773    -55.983861
PG18  12631.239898 -18820.799774 -14189.179629     57.084612
PG19      0.000000      0.000000      0.000000 999999.999999
PG20  22293.893115  14076.753620   3521.264274    515.776162
PG21  15793.031555   8045.267088  20568.552224   -337.269745
PG22   1136.743210 -16854.713690 -20267.606055   -518.692376
PG23  -2085.583720 -25965.980368   4159.082085   -210.891821
PG24  -7902.786285  18766.877680 -17013.671565    -55.358646
PG25  14695.276423  19077.899041 -11642.689936   -646.764029
PG26  21861.745768    939.501183  15146.380184    -20.836404
PG27  11901.926117 -16894.484420  16448.128529    345.095540
PG28 -22094.004092 -13967.238892  -3915.455431    744.328784
PG29   5278.154921  23164.168876  11847.548717    376.780062
PG30 -21055.465941  -3251.710260  15986.061217     24.260568
PG31  24937.589911  -5722.763153  -7875.003972     93.694760
PG32  14906.682975   4698.791630 -21442.103385   -424.147461
PJ01 -21881.326512  26184.935697  29785.770204   -346.193962
PJ02 -34923.863886  16534.643018 -12333.441445      0.009411
PJ03 -20307.101262  29924.864754 -17118.252097      0.065927
PR01  15446.616566   8051.614447 -18626.554493     31.969226
PR02   5613.075141 -11171.535702 -22189.095230    329.568859
PR03  -6614.430605 -21834.253088 -11328.886296    143.195015
PR04 -15133.534018 -19456.189530   6551.006781    276.126215
PR05 -14619.808134  -6285.068507  19937.537397     10.605285
PR07   6864.748120  21996.232253  11012.878348    -47.081189
PR08  14897.655249  19873.395414  -5772.217903     21.308260
PR09 -17158.675587   8235.914741 -17003.234314     28.304261
PR10     57.935483  10689.407541 -23172.511525     31.642197
PR11  18522.902602   7531.330248 -15784.458782    -40.819191
PR13  17359.740816  -8176.157934  16788.288133    -14.680745
PR14   -131.216411 -10942.908519  23059.448965     30.992336
PR15 -14715.752822  -8748.981700  18884.559215    -16.296001
PR16 -25446.176020    322.006666    428.999684    101.623613
PR17   6988.268034 -22109.605366 -10676.132674    164.090924
PR18  -4479.958945 -12255.289608 -21899.118552     25.022514
PR19 -13619.109452   4148.877501 -21167.852266    -59.424029
PR20 -15230.284125  19288.645765  -6905.172891   -352.195628
PR21  -6714.977092  21947.818853  11090.349903     -3.356856
PR22   5760.155142  10460.667257  22555.710543    -62.242765
PR23  14797.932661  -8476.279625  18959.218751    178.136278
PR24  14583.979018 -20123.837529   5702.060607   -171.358094
PR26 -15099.226053  18837.885181  -8180.986264     47.283144
EOF
